OBJECT_NAME,OBJECT_ID,EPOCH,MEAN_MOTION,ECCENTRICITY,INCLINATION,RA_OF_ASC_NODE,ARG_OF_PERICENTER,MEAN_ANOMALY,EPHEMERIS_TYPE,CLASSIFICATION_TYPE,NORAD_CAT_ID,ELEMENT_SET_NO,REV_AT_EPOCH,BSTAR,MEAN_MOTION_DOT,MEAN_MOTION_DDOT
STARLINK-33897,2025-094B,2026-02-22T22:37:23.736576,14.98330322,.00028508,69.9995,271.6610,269.2378,90.8455,0,U,63865,999,4521,.49340088E-3,.5799E-4,0
STARLINK-34022,2025-094C,2026-02-22T21:19:31.724832,14.98351604,.0002975,69.9989,271.8719,270.1785,89.9034,0,U,63866,999,4498,.49800634E-3,.5857E-4,0
STARLINK-33979,2025-094D,2026-02-22T22:44:05.948448,14.96460569,.00060293,69.9996,271.6794,76.7193,283.4637,0,U,63867,999,4499,-.77982351E-1,-.825781E-2,0
STARLINK-34007,2025-094E,2026-02-22T21:37:18.255072,14.98337503,.00028312,69.9999,271.9154,271.8003,88.2832,0,U,63868,999,4498,.2535677E-3,.2934E-4,0
STARLINK-34006,2025-094F,2026-02-22T06:00:02.000160,14.98352119,.00027781,69.9999,273.3075,273.9703,40.4438,0,U,63869,999,570,-.42643269E-2,-.50637E-3,0
STARLINK-33986,2025-094G,2026-02-22T22:00:01.999584,14.98322184,.00026459,70.0002,271.6730,272.9809,351.3938,0,U,63870,999,576,.15109151E-2,.17977E-3,0
STARLINK-34013,2025-094H,2026-02-22T22:07:18.625440,14.98331955,.00029595,69.9998,271.5900,266.0510,94.0311,0,U,63871,999,4499,.50964386E-4,.515E-5,0
STARLINK-34059,2025-094J,2026-02-22T22:00:01.999584,14.98323515,.00025762,70.0004,271.8520,271.9379,195.7619,0,U,63872,999,562,.13763709E-2,.16365E-3,0
STARLINK-33987,2025-094K,2026-02-22T22:19:20.630496,14.98332153,.00028905,69.9997,271.6185,278.9722,81.1110,0,U,63873,999,4499,.13332166E-3,.1498E-4,0
STARLINK-34052,2025-094L,2026-02-22T21:25:15.952800,14.98386782,.00024061,69.9998,271.8842,268.6871,91.4012,0,U,63874,999,4498,.16811885E-2,.20053E-3,0
STARLINK-34023,2025-094M,2026-02-21T16:00:01.999584,14.98349663,.00019318,69.9999,274.7749,269.5365,140.1705,0,U,63875,999,578,-.11164259E-2,-.13394E-3,0
STARLINK-34061,2025-094N,2026-02-22T21:43:33.311424,14.98333094,.00028444,70.0002,271.9315,269.6823,90.4011,0,U,63876,999,4498,.15370468E-3,.1742E-4,0
STARLINK-33778,2025-094P,2026-02-22T22:00:01.999584,14.98321855,.00028031,70.0002,271.7483,272.3123,284.5350,0,U,63877,999,580,.15323054E-2,.18234E-3,0
STARLINK-33901,2025-094Q,2026-02-21T16:00:01.999584,14.98353866,.00024421,70.0001,275.0001,274.9924,291.2377,0,U,63878,999,561,-.15488099E-2,-.18535E-3,0
STARLINK-33812,2025-094R,2026-02-22T06:00:02.000160,14.98351976,.00027013,69.9996,273.3748,271.4979,336.2891,0,U,63879,999,566,-.41270808E-2,-.49021E-3,0
STARLINK-33779,2025-094S,2026-02-22T21:19:16.457952,14.98336252,.00023234,69.9999,271.8765,276.0378,84.0516,0,U,63880,999,4498,.22298736E-3,.2569E-4,0
STARLINK-33905,2025-094T,2026-02-22T21:55:18.023520,14.98341447,.00022618,70.0000,271.5614,270.1419,89.9481,0,U,63881,999,4499,.27008792E-3,.3132E-4,0
STARLINK-34003,2025-094U,2026-02-22T22:13:20.363232,15.42716152,.00038193,69.9994,245.1379,270.0188,90.0556,0,U,63882,999,4565,.96404467E-3,.4231E-3,0
STARLINK-33968,2025-094V,2026-02-22T21:37:32.435040,14.98336488,.00032087,69.9996,271.9134,270.4105,89.6687,0,U,63883,999,4498,.4773289E-3,.5608E-4,0
STARLINK-33943,2025-094W,2026-02-22T21:49:15.942720,14.98337777,.00035185,69.9996,271.5458,269.9830,90.0926,0,U,63884,999,4499,-.16216999E-3,-.2028E-4,0
STARLINK-33858,2025-094X,2026-02-22T06:00:02.000160,14.98347378,.00026973,69.9997,273.3544,275.2271,355.0416,0,U,63885,999,570,-.40125214E-2,-.47666E-3,0
STARLINK-33885,2025-094Y,2026-02-22T22:01:18.574176,14.98334988,.00025746,69.9999,271.5712,268.3444,91.7420,0,U,63886,999,4499,.14790014E-3,.1672E-4,0
STARLINK-33904,2025-094Z,2026-02-22T21:55:33.237696,14.98336545,.0002818,69.9997,271.5585,269.7725,90.3111,0,U,63887,999,4499,.52443835E-3,.6171E-4,0
STARLINK-33981,2025-094AA,2026-02-22T21:13:29.895456,14.98337451,.00025558,69.9997,271.8532,269.7336,90.3530,0,U,63888,999,4498,.29819233E-3,.3467E-4,0
STARLINK-33738,2025-094AB,2026-02-22T22:30:37.602144,15.00012702,.00041434,69.9994,271.6161,163.8744,196.2548,0,U,63889,999,4521,.42497951E-1,.56134E-2,0
STARLINK-34116,2025-095A,2026-02-22T15:15:47.390688,15.27605324,.0001347,42.9980,261.4010,224.6603,135.4141,0,U,63890,999,4548,.10003E-2,.27386E-3,0
STARLINK-34123,2025-095B,2026-02-22T20:18:37.156032,15.27595025,.00011208,43.0004,260.4028,259.9515,100.1210,0,U,63891,999,4551,.11671581E-2,.3201E-3,0
STARLINK-34128,2025-095C,2026-02-22T22:00:01.999584,15.82692833,.00017346,42.9988,257.2988,278.2214,144.5504,0,U,63892,999,581,.13387349E-1,.3375307E-1,0
STARLINK-33972,2025-095D,2026-02-22T22:55:28.406496,15.27598912,.00019896,43.0024,259.4992,285.6424,74.4209,0,U,63893,999,4553,.90982701E-3,.24874E-3,0
STARLINK-33973,2025-095E,2026-02-22T22:03:39.712896,15.27586032,.00015615,43.0001,259.2196,276.6777,83.3897,0,U,63894,999,4553,.10213938E-2,.27956E-3,0
STARLINK-34119,2025-095F,2026-02-22T20:07:30.664704,15.27601866,.00015305,43.0000,260.3449,259.4420,100.6259,0,U,63895,999,4551,.95938458E-3,.2625E-3,0
STARLINK-34143,2025-095G,2026-02-22T22:38:49.136928,15.27581727,.0001358,43.0014,259.4051,273.3063,86.7634,0,U,63896,999,4553,.10989391E-2,.30103E-3,0
STARLINK-33957,2025-095H,2026-02-22T21:47:13.192512,15.27608787,.00019822,43.0001,260.0040,261.1463,98.9164,0,U,63897,999,4551,.9929014E-3,.27186E-3,0
STARLINK-34120,2025-095J,2026-02-22T21:58:06.773088,15.27596038,.00017013,43.0002,259.1900,259.8025,100.2635,0,U,63898,999,4553,.10484256E-2,.28715E-3,0
STARLINK-34134,2025-095K,2026-02-22T15:10:14.148480,15.27589988,.0001385,43.0010,261.3712,254.1591,105.9108,0,U,63899,999,4548,.55311E-3,.14994E-3,0
STARLINK-34118,2025-095L,2026-02-22T20:01:57.822528,15.27592602,.00012328,43.0012,260.3144,269.3508,90.7202,0,U,63900,999,4551,.10185654E-2,.27883E-3,0
STARLINK-34125,2025-095M,2026-02-22T22:49:54.407424,15.27610163,.00020129,43.0051,259.4653,284.3910,75.6719,0,U,63901,999,4552,.1076997E-2,.29521E-3,0
STARLINK-33955,2025-095N,2026-02-22T22:07:21.914688,15.27618163,.00019493,42.9972,259.2354,271.1961,88.8668,0,U,63902,999,4552,.13937408E-2,.38336E-3,0
STARLINK-34097,2025-095P,2026-02-22T22:35:06.721728,15.27552016,.00014185,43.0000,259.3836,286.1412,73.9284,0,U,63903,999,4552,.87417854E-3,.23851E-3,0
STARLINK-34092,2025-095Q,2026-02-22T13:52:44.713056,15.27596375,.0001433,42.9994,261.8304,271.8525,88.2163,0,U,63904,999,4546,.10334E-2,.28297E-3,0
STARLINK-34114,2025-095R,2026-02-22T20:20:28.074624,15.27590192,.00011798,42.9999,260.4091,267.1696,92.9020,0,U,63905,999,4550,.8820086E-3,.24096E-3,0
STARLINK-33770,2025-095S,2026-02-22T22:20:18.555648,15.27602620,.00018379,43.0026,259.3010,270.1249,89.9392,0,U,63906,999,4552,.1414794E-2,.38903E-3,0
STARLINK-34106,2025-095T,2026-02-22T22:14:45.522528,15.27607644,.0001592,42.9977,259.2712,266.3742,93.6927,0,U,63907,999,4552,.11743268E-2,.32222E-3,0
STARLINK-34083,2025-095U,2026-02-22T20:14:54.956832,15.27604504,.00010473,42.9948,260.3803,121.3137,238.7817,0,U,63908,999,4550,.10140755E-2,.27769E-3,0
STARLINK-34066,2025-095V,2026-02-22T15:12:05.319360,15.27607204,.000129,42.9979,261.3765,208.9796,151.0984,0,U,63909,999,4547,.1156E-2,.31713E-3,0
STARLINK-34071,2025-095W,2026-02-22T20:03:48.602880,15.27596027,.00017547,43.0030,260.3248,275.3381,84.7270,0,U,63910,999,4550,.82384913E-3,.22489E-3,0
STARLINK-34038,2025-095X,2026-02-22T22:51:45.910944,15.27602274,.00020751,43.0044,259.4732,273.4118,86.6497,0,U,63911,999,4552,.94143711E-3,.25753E-3,0
STARLINK-34031,2025-095Y,2026-02-22T22:57:19.807200,15.27568312,.00020459,42.9998,259.4948,205.2587,154.8165,0,U,63912,999,4552,.10720105E-2,.29345E-3,0
STARLINK-34070,2025-095Z,2026-02-22T22:46:13.211328,15.27584715,.00015317,43.0017,259.4396,267.4869,92.5807,0,U,63913,999,4552,.99080825E-3,.27107E-3,0
STARLINK-34068,2025-095AA,2026-02-22T22:31:23.560032,15.27626797,.00015941,42.9996,259.3599,265.0990,94.9680,0,U,63914,999,4552,.1151004E-2,.31592E-3,0
STARLINK-34076,2025-095AB,2026-02-22T22:40:40.929888,15.27567236,.00014978,43.0045,259.4116,276.6430,83.4251,0,U,63915,999,4552,.11296024E-2,.3094E-3,0
STARLINK-33910,2025-095AC,2026-02-22T20:35:04.933536,15.27583255,.00011181,42.9991,259.6124,281.4534,78.6192,0,U,63916,999,4551,.89678177E-3,.245E-3,0
STARLINK-34075,2025-095AD,2026-02-22T22:25:51.543840,15.27599233,.00029649,43.0038,259.3291,263.7637,96.2878,0,U,63917,999,4552,.10848882E-2,.29732E-3,0
YAOGAN-40 02A,2025-096A,2026-02-22T22:33:27.881856,14.12422195,.00023621,85.9895,239.1543,89.5890,270.5564,0,U,63918,999,4044,.74995727E-4,.157E-5,0
YAOGAN-40 02B,2025-096B,2026-02-22T22:33:41.731776,14.12420384,.0001985,85.9890,239.1329,103.0518,257.0886,0,U,63919,999,4044,.10140783E-3,.206E-5,0
YAOGAN-40 02C,2025-096C,2026-02-22T22:33:35.502336,14.12420347,.00021081,85.9898,238.3982,88.1002,272.0422,0,U,63920,999,5928,.12246192E-3,.245E-5,0
TJS-19,2025-097A,2026-02-22T20:38:40.172352,1.00271291,.0003028,3.4828,315.6558,332.6619,315.3611,0,U,63924,999,299,0,-.271E-5,0
STARLINK-34012,2025-098A,2026-02-22T23:08:05.381088,14.98336590,.00024492,70.0010,311.7099,269.0603,91.0275,0,U,63926,999,4438,.24435952E-3,.2824E-4,0
STARLINK-33956,2025-098B,2026-02-22T22:01:57.736704,14.98344468,.0003146,70.0012,311.5445,293.3853,66.6975,0,U,63927,999,4436,.47253715E-3,.5552E-4,0
STARLINK-33997,2025-098C,2026-02-22T23:26:07.445184,14.98337908,.00025247,70.0014,311.7465,268.5608,91.5261,0,U,63928,999,4436,.27102785E-3,.3143E-4,0
STARLINK-33989,2025-098D,2026-02-22T22:50:17.615328,14.98393613,.00014636,70.0055,311.6681,271.2708,88.8283,0,U,63929,999,4436,.28681985E-2,.34353E-3,0
STARLINK-33980,2025-098E,2026-02-22T23:20:05.425728,14.98368112,.00026575,70.0019,311.7419,261.5509,98.5349,0,U,63930,999,4436,.11114113E-2,.13206E-3,0
STARLINK-33994,2025-098F,2026-02-22T22:44:17.075040,14.98342391,.00026693,70.0009,311.6524,263.9670,96.1185,0,U,63931,999,4436,.45951345E-3,.5396E-4,0
STARLINK-33971,2025-098G,2026-02-22T23:14:20.351040,14.98344891,.00024296,70.0012,311.7254,266.0135,94.0746,0,U,63932,999,4436,.6295783E-3,.743E-4,0
